*******************************************************************************
JPL/HORIZONS               2945 Zanstra (1935 ST1)         2023-Sep-04 11:20:50
Rec #:    2945 (+COV) Soln.date: 2023-Aug-23_04:13:53   # obs: 3906 (1935-2022)
 
IAU76/J2000 helio. ecliptic osc. elements (au, days, deg., period=Julian yrs):
 
  EPOCH=  2457653.5 ! 2016-Sep-22.00 (TDB)         Residual RMS= .26688
   EC= .1378584578562238   QR= 2.302906091595873   TP= 2458221.6251750961
   OM= 95.79843239506656   W=  243.6996814451743   IN= 2.624047996641581
   A= 2.671146185427434    MA= 231.7369321151767   ADIST= 3.039386279258995
   PER= 4.36571            N= .225765506           ANGMOM= .027846055
   DAN= 2.79085            DDN= 2.46954            L= 339.4742301
   B= -2.3522554           MOID= 1.29512           TP= 2018-Apr-13.1251750961
 
Asteroid physical parameters (km, seconds, rotational period in hours):
   GM= n.a.                RAD= 11.8505            ROTPER= 10.05
   H= 12.78                G= .150                 B-V= n.a.
                           ALBEDO= .031            STYP= n.a.

ASTEROID comments: 
1: soln ref.= JPL#50, OCC=0
2: source=ORB
*******************************************************************************


*******************************************************************************
Ephemeris / API_USER Mon Sep  4 11:20:50 2023 Pasadena, USA      / Horizons
*******************************************************************************
Target body name: 2945 Zanstra (1935 ST1)         {source: JPL#50}
Center body name: Solar System Barycenter (0)     {source: DE441}
Center-site name: BODY CENTER
*******************************************************************************
Start time      : A.D. 2023-Aug-12 00:00:00.0000 TDB
Stop  time      : A.D. 2023-Aug-13 00:00:00.0000 TDB
Step-size       : 2880 minutes
*******************************************************************************
Center geodetic : 0.0, 0.0, 0.0                   {E-lon(deg),Lat(deg),Alt(km)}
Center cylindric: 0.0, 0.0, 0.0                   {E-lon(deg),Dxy(km),Dz(km)}
Center radii    : (undefined)
Small perturbers: Yes                             {source: SB441-N16}
Output units    : KM-S
Calendar mode   : Mixed Julian/Gregorian
Output type     : GEOMETRIC cartesian states
Output format   : 2 (position and velocity)
Reference frame : Ecliptic of J2000.0
*******************************************************************************
Initial IAU76/J2000 heliocentric ecliptic osculating elements (au, days, deg.):
  EPOCH=  2457653.5 ! 2016-Sep-22.00 (TDB)         Residual RMS= .26688        
   EC= .1378584578562238   QR= 2.302906091595873   TP= 2458221.6251750961      
   OM= 95.79843239506656   W=  243.6996814451743   IN= 2.624047996641581       
  Equivalent ICRF heliocentric cartesian coordinates (au, au/d):
   X=-2.745491891247541E+00  Y=-9.741957349767716E-01  Z=-2.808491474677651E-01
  VX= 4.161757817533653E-03 VY=-7.837696843623305E-03 VZ=-3.561443654852990E-03
Asteroid physical parameters (km, seconds, rotational period in hours):        
   GM= n.a.                RAD= 11.8505            ROTPER= 10.05               
   H= 12.78                G= .150                 B-V= n.a.                   
                           ALBEDO= .031            STYP= n.a.                  
*******************************************************************************
JDTDB
   X     Y     Z
   VX    VY    VZ
*******************************************************************************
$$SOE
2460168.500000000 = A.D. 2023-Aug-12 00:00:00.0000 TDB 
 X = 9.779192946846920E+07 Y = 3.844515673253644E+08 Z =-6.247405696544617E+06
 VX=-1.690333395585897E+01 VY= 6.995617490160862E+00 VZ= 7.392390323183258E-01
$$EOE
*******************************************************************************
 
TIME

  Barycentric Dynamical Time ("TDB" or T_eph) output was requested. This
continuous coordinate time is equivalent to the relativistic proper time
of a clock at rest in a reference frame co-moving with the solar system
barycenter but outside the system's gravity well. It is the independent
variable in the solar system relativistic equations of motion.

  TDB runs at a uniform rate of one SI second per second and is independent
of irregularities in Earth's rotation.
 
CALENDAR SYSTEM

  Mixed calendar mode was active such that calendar dates after AD 1582-Oct-15
(if any) are in the modern Gregorian system. Dates prior to 1582-Oct-5 (if any)
are in the Julian calendar system, which is automatically extended for dates
prior to its adoption on 45-Jan-1 BC.  The Julian calendar is useful for
matching historical dates. The Gregorian calendar more accurately corresponds
to the Earth's orbital motion and seasons. A "Gregorian-only" calendar mode is
available if such physical events are the primary interest.

REFERENCE FRAME AND COORDINATES

  Ecliptic at the standard reference epoch

    Reference epoch: J2000.0
    X-Y plane: adopted Earth orbital plane at the reference epoch
               Note: IAU76 obliquity of 84381.448 arcseconds wrt ICRF X-Y plane
    X-axis   : ICRF
    Z-axis   : perpendicular to the X-Y plane in the directional (+ or -) sense
               of Earth's north pole at the reference epoch.

  Symbol meaning:

    JDTDB    Julian Day Number, Barycentric Dynamical Time
      X      X-component of position vector (km)
      Y      Y-component of position vector (km)
      Z      Z-component of position vector (km)
      VX     X-component of velocity vector (km/sec)                           
      VY     Y-component of velocity vector (km/sec)                           
      VZ     Z-component of velocity vector (km/sec)                           

ABERRATIONS AND CORRECTIONS

 Geometric state vectors have NO corrections or aberrations applied.

Computations by ...

    Solar System Dynamics Group, Horizons On-Line Ephemeris System
    4800 Oak Grove Drive, Jet Propulsion Laboratory
    Pasadena, CA  91109   USA

    General site: https://ssd.jpl.nasa.gov/
    Mailing list: https://ssd.jpl.nasa.gov/email_list.html
    System news : https://ssd.jpl.nasa.gov/horizons/news.html
    User Guide  : https://ssd.jpl.nasa.gov/horizons/manual.html
    Connect     : browser        https://ssd.jpl.nasa.gov/horizons/app.html#/x
                  API            https://ssd-api.jpl.nasa.gov/doc/horizons.html
                  command-line   telnet ssd.jpl.nasa.gov 6775
                  e-mail/batch   https://ssd.jpl.nasa.gov/ftp/ssd/hrzn_batch.txt
                  scripts        https://ssd.jpl.nasa.gov/ftp/ssd/SCRIPTS
    Author      : Jon.D.Giorgini@jpl.nasa.gov
*******************************************************************************
